STARLINK-32951          
1 63562U 25075Q   26060.10894401  .00012565  00000+0  46514-3 0  9993
2 63562  43.0049 319.1913 0001356 262.4704  97.5994 15.27595294 50626
STARLINK-32958          
1 63563U 25075R   26060.09866465  .00001863  00000+0  77266-4 0  9999
2 63563  43.0038 319.1439 0002403 272.0900  87.9676 15.27563134 50614
STARLINK-32928          
1 63564U 25075S   26060.14735290  .00033881  00000+0  12342-2 0  9994
2 63564  43.0011 318.6461 0001336 258.1768 101.8934 15.27604801 50638
STARLINK-32687          
1 63565U 25075T   26060.10765799  .00037089  00000+0  13493-2 0  9990
2 63565  43.0034 319.1810 0001888 261.7646  98.2991 15.27609291 50624
STARLINK-32950          
1 63566U 25075U   26060.07682228  .00025666  00000+0  93858-3 0  9994
2 63566  42.9971 318.9141 0000699 299.3135  60.7647 15.27594068 50612
STARLINK-32954          
1 63567U 25075V   26060.08967545  .00024474  00000+0  89551-3 0  9995
2 63567  43.0002 319.0449 0001153 278.2114  81.8607 15.27595120 50612
STARLINK-32940          
1 63568U 25075W   26060.09481746  .00023004  00000+0  84253-3 0  9993
2 63568  42.9975 319.0823 0000467  83.4495 276.6409 15.27592652 50612
STARLINK-32959          
1 63569U 25076A   26060.24452872  .00027087  00000+0  98948-3 0  9991
2 63569  43.0026  13.3679 0001330 252.4072 107.6635 15.27604695 50495
STARLINK-32956          
1 63570U 25076B   26060.25208917  .00022328  00000+0  81793-3 0  9996
2 63570  43.0036  12.5611 0001149 272.3366  87.7355 15.27600495 50491
STARLINK-33722          
1 63571U 25076C   26060.20131167  .00031809  00000+0  11595-2 0  9990
2 63571  42.9993   9.5155 0001021 286.9866  73.0873 15.27607708 50527
STARLINK-33739          
1 63572U 25076D   26060.23600351  .00027881  00000+0  10186-2 0  9990
2 63572  43.0035   9.7780 0002151 269.2873  90.7732 15.27586162 50531
STARLINK-33683          
1 63573U 25076E   26060.23472214  .00026353  00000+0  96348-3 0  9994
2 63573  43.0010   9.7673 0001165 271.9943  88.0775 15.27589828 50537
STARLINK-33732          
1 63575U 25076G   26060.22186422  .00042217  00000+0  15329-2 0  9994
2 63575  43.0024   9.6703 0001456 269.8431  90.2253 15.27622031 50538
STARLINK-33800          
1 63576U 25076H   26060.26155425  .00024109  00000+0  88200-3 0  9997
2 63576  43.0019   9.1020 0001613 255.1598 104.9075 15.27607792 50540
STARLINK-33632          
1 63577U 25076J   26060.23215199  .00044734  00000+0  16240-2 0  9990
2 63577  43.0031   9.7451 0001444 266.6942  93.3744 15.27606528 50530
STARLINK-33719          
1 63578U 25076K   26060.33593384  .00037263  00000+0  13555-2 0  9992
2 63578  43.0015   8.8054 0001441 275.1568  84.9119 15.27611114 50559
STARLINK-33755          
1 63579U 25076L   26060.27183389  .00014874  00000+0  54905-3 0  9994
2 63579  42.9994   9.1000 0000974 274.8435  85.2306 15.27573363 50542
STARLINK-33752          
1 63580U 25076M   26060.28468862  .00017706  00000+0  65114-3 0  9990
2 63580  43.0004   9.2801 0001202 276.7183  83.3531 15.27594010 50545
STARLINK-33714          
1 63581U 25076N   26060.26284087  .00023542  00000+0  86167-3 0  9990
2 63581  43.0010   9.1106 0001265 274.4298  85.6409 15.27603356 50544
STARLINK-33814          
1 63582U 25076P   26060.25641380  .00025971  00000+0  94923-3 0  9990
2 63582  43.0025   9.0600 0001596 262.9236  97.1435 15.27605006 50541
STARLINK-33817          
1 63583U 25076Q   26060.18460346  .00029563  00000+0  10787-2 0  9990
2 63583  43.0041   9.3815 0001821 267.1419  92.9224 15.27603843 50526
STARLINK-33820          
1 63584U 25076R   26060.24227904  .00030810  00000+0  11234-2 0  9994
2 63584  43.0040   8.9533 0001337 258.1696 101.9005 15.27611646 50547
STARLINK-33813          
1 63585U 25076S   26060.24356743  .00027892  00000+0  10186-2 0  9990
2 63585  43.0040   8.9645 0001280 261.9822  98.0885 15.27601362 50548
STARLINK-33834          
1 63586U 25076T   26060.21287366  .00042206  00000+0  15332-2 0  9996
2 63586  43.0011   9.5966 0001626 266.9424  93.1241 15.27606921 50534
STARLINK-33830          
1 63587U 25076U   26060.27568771  .00031641  00000+0  11533-2 0  9995
2 63587  43.0017   9.2064 0001672 272.7485  87.3175 15.27612296 50544
STARLINK-33651          
1 63588U 25076V   26060.21158958  .00025228  00000+0  92267-3 0  9990
2 63588  43.0003   9.5874 0001292 272.4992  87.5712 15.27596537 50537
STARLINK-33788          
1 63589U 25076W   26060.22829504  .00028203  00000+0  10297-2 0  9992
2 63589  43.0018   9.7130 0000966 279.7027  80.3715 15.27605126 50536
STARLINK-33805          
1 63590U 25076X   26060.23856951  .00025294  00000+0  92471-3 0  9993
2 63590  43.0046   9.7794 0000872 250.4321 109.6437 15.27610204 50533
STARLINK-33702          
1 63591U 25076Y   26060.19231585  .00026644  00000+0  97341-3 0  9990
2 63591  43.0021   9.4335 0001073 284.5798  75.4934 15.27608164 50539
STARLINK-33666          
1 63592U 25076Z   26060.22315402  .00043037  00000+0  15634-2 0  9995
2 63592  43.0023   9.6697 0001648 271.2563  88.8100 15.27599811 50537
