OBJECT_NAME,OBJECT_ID,EPOCH,MEAN_MOTION,ECCENTRICITY,INCLINATION,RA_OF_ASC_NODE,ARG_OF_PERICENTER,MEAN_ANOMALY,EPHEMERIS_TYPE,CLASSIFICATION_TYPE,NORAD_CAT_ID,ELEMENT_SET_NO,REV_AT_EPOCH,BSTAR,MEAN_MOTION_DOT,MEAN_MOTION_DDOT
STARLINK-32951,2025-075Q,2026-03-01T02:36:52.762464,15.27595294,.00013568,43.0049,319.1913,262.4704,97.5994,0,U,63562,999,5062,.46513942E-3,.12565E-3,0
STARLINK-32958,2025-075R,2026-03-01T02:22:04.625760,15.27563134,.00024038,43.0038,319.1439,272.0900,87.9676,0,U,63563,999,5061,.77266007E-4,.1863E-4,0
STARLINK-32928,2025-075S,2026-03-01T03:32:11.290560,15.27604801,.00013364,43.0011,318.6461,258.1768,101.8934,0,U,63564,999,5063,.12341639E-2,.33881E-3,0
STARLINK-32687,2025-075T,2026-03-01T02:35:01.650336,15.27609291,.00018886,43.0034,319.1810,261.7646,98.2991,0,U,63565,999,5062,.1349335E-2,.37089E-3,0
STARLINK-32950,2025-075U,2026-03-01T01:50:37.444992,15.27594068,.00006993,42.9971,318.9141,299.3135,60.7647,0,U,63566,999,5061,.93857533E-3,.25666E-3,0
STARLINK-32954,2025-075V,2026-03-01T02:09:07.958880,15.27595120,.00011538,43.0002,319.0449,278.2114,81.8607,0,U,63567,999,5061,.89551261E-3,.24474E-3,0
STARLINK-32940,2025-075W,2026-03-01T02:16:32.228544,15.27592652,.00004675,42.9975,319.0823,83.4495,276.6409,0,U,63568,999,5061,.84252869E-3,.23004E-3,0
STARLINK-32959,2025-076A,2026-03-01T05:52:07.281408,15.27604695,.000133,43.0026,13.3679,252.4072,107.6635,0,U,63569,999,5049,.98948E-3,.27087E-3,0
STARLINK-32956,2025-076B,2026-03-01T06:03:00.504288,15.27600495,.0001149,43.0036,12.5611,272.3366,87.7355,0,U,63570,999,5049,.81793E-3,.22328E-3,0
STARLINK-33722,2025-076C,2026-03-01T04:49:53.328288,15.27607708,.0001021,42.9993,9.5155,286.9866,73.0873,0,U,63571,999,5052,.11595E-2,.31809E-3,0
STARLINK-33739,2025-076D,2026-03-01T05:39:50.703264,15.27586162,.0002151,43.0035,9.7780,269.2873,90.7732,0,U,63572,999,5053,.10186E-2,.27881E-3,0
STARLINK-33683,2025-076E,2026-03-01T05:37:59.992896,15.27589828,.0001165,43.0010,9.7673,271.9943,88.0775,0,U,63573,999,5053,.96348E-3,.26353E-3,0
STARLINK-33732,2025-076G,2026-03-01T05:19:29.068608,15.27622031,.0001456,43.0024,9.6703,269.8431,90.2253,0,U,63575,999,5053,.15329E-2,.42217E-3,0
STARLINK-33800,2025-076H,2026-03-01T06:16:38.287200,15.27607792,.0001613,43.0019,9.1020,255.1598,104.9075,0,U,63576,999,5054,.882E-3,.24109E-3,0
STARLINK-33632,2025-076J,2026-03-01T05:34:17.931936,15.27606528,.0001444,43.0031,9.7451,266.6942,93.3744,0,U,63577,999,5053,.1624E-2,.44734E-3,0
STARLINK-33719,2025-076K,2026-03-01T08:03:44.683776,15.27611114,.0001441,43.0015,8.8054,275.1568,84.9119,0,U,63578,999,5055,.13555E-2,.37263E-3,0
STARLINK-33755,2025-076L,2026-03-01T06:31:26.448096,15.27573363,.0000974,42.9994,9.1000,274.8435,85.2306,0,U,63579,999,5054,.54905E-3,.14874E-3,0
STARLINK-33752,2025-076M,2026-03-01T06:49:57.096768,15.27594010,.0001202,43.0004,9.2801,276.7183,83.3531,0,U,63580,999,5054,.65114E-3,.17706E-3,0
STARLINK-33714,2025-076N,2026-03-01T06:18:29.451168,15.27603356,.0001265,43.0010,9.1106,274.4298,85.6409,0,U,63581,999,5054,.86167E-3,.23542E-3,0
STARLINK-33814,2025-076P,2026-03-01T06:09:14.152320,15.27605006,.0001596,43.0025,9.0600,262.9236,97.1435,0,U,63582,999,5054,.94923E-3,.25971E-3,0
STARLINK-33817,2025-076Q,2026-03-01T04:25:49.738944,15.27603843,.0001821,43.0041,9.3815,267.1419,92.9224,0,U,63583,999,5052,.10787E-2,.29563E-3,0
STARLINK-33820,2025-076R,2026-03-01T05:48:52.909056,15.27611646,.0001337,43.0040,8.9533,258.1696,101.9005,0,U,63584,999,5054,.11234E-2,.3081E-3,0
STARLINK-33813,2025-076S,2026-03-01T05:50:44.225952,15.27601362,.000128,43.0040,8.9645,261.9822,98.0885,0,U,63585,999,5054,.10186E-2,.27892E-3,0
STARLINK-33834,2025-076T,2026-03-01T05:06:32.284224,15.27606921,.0001626,43.0011,9.5966,266.9424,93.1241,0,U,63586,999,5053,.15332E-2,.42206E-3,0
STARLINK-33830,2025-076U,2026-03-01T06:36:59.418144,15.27612296,.0001672,43.0017,9.2064,272.7485,87.3175,0,U,63587,999,5054,.11533E-2,.31641E-3,0
STARLINK-33651,2025-076V,2026-03-01T05:04:41.339712,15.27596537,.0001292,43.0003,9.5874,272.4992,87.5712,0,U,63588,999,5053,.92267E-3,.25228E-3,0
STARLINK-33788,2025-076W,2026-03-01T05:28:44.691456,15.27605126,.0000966,43.0018,9.7130,279.7027,80.3715,0,U,63589,999,5053,.10297E-2,.28203E-3,0
STARLINK-33805,2025-076X,2026-03-01T05:43:32.405664,15.27610204,.0000872,43.0046,9.7794,250.4321,109.6437,0,U,63590,999,5053,.92471E-3,.25294E-3,0
STARLINK-33702,2025-076Y,2026-03-01T04:36:56.089440,15.27608164,.0001073,43.0021,9.4335,284.5798,75.4934,0,U,63591,999,5053,.97341E-3,.26644E-3,0
STARLINK-33666,2025-076Z,2026-03-01T05:21:20.507328,15.27599811,.0001648,43.0023,9.6697,271.2563,88.8100,0,U,63592,999,5053,.15634E-2,.43037E-3,0
